{"type": "FeatureCollection", "features": [ {"type": "Feature", "properties": {"norad_id": 32440, "name": "FENGYUN 1C DEB", "group": "fengyun-1c-debris", "lat": 53.87261098329235, "lon": 30.443217176644826, "alt_km": 804.6232282440324, "timestamp": "2025-12-08T03:50:07.283514+00:00", "meta": {"OBJECT_NAME": "FENGYUN 1C DEB", "OBJECT_ID": "1999-025DBC", "EPOCH": "2025-12-05T08:12:44.739072", "MEAN_MOTION": 13.61195229, "ECCENTRICITY": 0.03213757, "INCLINATION": 99.1546, "RA_OF_ASC_NODE": 195.0359, "ARG_OF_PERICENTER": 110.0631, "MEAN_ANOMALY": 253.5405, "EPHEMERIS_TYPE": 0, "CLASSIFICATION_TYPE": "U", "NORAD_CAT_ID": 32440, "ELEMENT_SET_NO": 999, "REV_AT_EPOCH": 60185, "BSTAR": 0.0046022853, "MEAN_MOTION_DOT": 4.901e-05, "MEAN_MOTION_DDOT": 0}, "tle": {"line1": "1 32440U 99025DBC 25339.34218448  .00004901  00000+0  46023-2 0  9994", "line2": "2 32440  99.1546 195.0359 0321375 110.0631 253.5405 13.61195229601857"}}, "geometry": {"type": "Point", "coordinates": [30.443217176644826, 53.87261098329235]}}, {"type": "Feature", "properties": {"norad_id": 32447, "name": "FENGYUN 1C DEB", "group": "fengyun-1c-debris", "lat": 21.666938078507098, "lon": -177.99120779175323, "alt_km": 921.2208712989659, "timestamp": "2025-12-08T03:50:07.283523+00:00", "meta": {"OBJECT_NAME": "FENGYUN 1C DEB", "OBJECT_ID": "1999-025DBK", "EPOCH": "2025-12-04T19:57:48.676032", "MEAN_MOTION": 13.96007618, "ECCENTRICITY": 0.00801771, "INCLINATION": 98.9313, "RA_OF_ASC_NODE": 355.1998, "ARG_OF_PERICENTER": 62.9072, "MEAN_ANOMALY": 298.0242, "EPHEMERIS_TYPE": 0, "CLASSIFICATION_TYPE": "U", "NORAD_CAT_ID": 32447, "ELEMENT_SET_NO": 999, "REV_AT_EPOCH": 67768, "BSTAR": 0.00045058659, "MEAN_MOTION_DOT": 5.92e-06, "MEAN_MOTION_DDOT": 0}, "tle": {"line1": "1 32447U 99025DBK 25338.83181338  .00000592  00000+0  45059-3 0  9992", "line2": "2 32447  98.9313 355.1998 0080177  62.9072 298.0242 13.96007618677686"}}, "geometry": {"type": "Point", "coordinates": [-177.99120779175323, 21.666938078507098]}}, {"type": "Feature", "properties": {"norad_id": 32451, "name": "FENGYUN 1C DEB", "group": "fengyun-1c-debris", "lat": -21.12622790818439, "lon": -34.46343162165668, "alt_km": 1034.6828988782208, "timestamp": "2025-12-08T03:50:07.283533+00:00", "meta": {"OBJECT_NAME": "FENGYUN 1C DEB", "OBJECT_ID": "1999-025DBP", "EPOCH": "2025-12-07T03:41:43.640448", "MEAN_MOTION": 13.86530002, "ECCENTRICITY": 0.01856534, "INCLINATION": 99.9705, "RA_OF_ASC_NODE": 320.568, "ARG_OF_PERICENTER": 209.6935, "MEAN_ANOMALY": 149.3578, "EPHEMERIS_TYPE": 0, "CLASSIFICATION_TYPE": "U", "NORAD_CAT_ID": 32451, "ELEMENT_SET_NO": 999, "REV_AT_EPOCH": 61687, "BSTAR": 0.0032287107, "MEAN_MOTION_DOT": 4.245e-05, "MEAN_MOTION_DDOT": 0}, "tle": {"line1": "1 32451U 99025DBP 25341.15397732  .00004245  00000+0  32287-2 0  9990", "line2": "2 32451  99.9705 320.5680 0185653 209.6935 149.3578 13.86530002616875"}}, "geometry": {"type": "Point", "coordinates": [-34.46343162165668, -21.12622790818439]}}, {"type": "Feature", "properties": {"norad_id": 32453, "name": "FENGYUN 1C DEB", "group": "fengyun-1c-debris", "lat": -4.183113633192704, "lon": -107.57574328194568, "alt_km": 940.4163630755529, "timestamp": "2025-12-08T03:50:07.283543+00:00", "meta": {"OBJECT_NAME": "FENGYUN 1C DEB", "OBJECT_ID": "1999-025DBR", "EPOCH": "2025-11-28T10:57:12.038976", "MEAN_MOTION": 14.02200263, "ECCENTRICITY": 0.00971069, "INCLINATION": 99.3715, "RA_OF_ASC_NODE": 241.7597, "ARG_OF_PERICENTER": 245.8452, "MEAN_ANOMALY": 113.2535, "EPHEMERIS_TYPE": 0, "CLASSIFICATION_TYPE": "U", "NORAD_CAT_ID": 32453, "ELEMENT_SET_NO": 999, "REV_AT_EPOCH": 93228, "BSTAR": 0.00096884375, "MEAN_MOTION_DOT": 1.498e-05, "MEAN_MOTION_DDOT": 0}, "tle": {"line1": "1 32453U 99025DBR 25332.45638934  .00001498  00000+0  96884-3 0  9998", "line2": "2 32453  99.3715 241.7597 0097106 245.8452 113.2535 14.02200263932285"}}, "geometry": {"type": "Point", "coordinates": [-107.57574328194568, -4.183113633192704]}}, {"type": "Feature", "properties": {"norad_id": 32455, "name": "FENGYUN 1C DEB", "group": "fengyun-1c-debris", "lat": -42.932561132099906, "lon": -18.08353342944178, "alt_km": 856.4486133006958, "timestamp": "2025-12-08T03:50:07.283553+00:00", "meta": {"OBJECT_NAME": "FENGYUN 1C DEB", "OBJECT_ID": "1999-025DBT", "EPOCH": "2025-12-06T05:56:32.231328", "MEAN_MOTION": 13.92383849, "ECCENTRICITY": 0.02369242, "INCLINATION": 101.7323, "RA_OF_ASC_NODE": 170.6468, "ARG_OF_PERICENTER": 161.416, "MEAN_ANOMALY": 199.5827, "EPHEMERIS_TYPE": 0, "CLASSIFICATION_TYPE": "U", "NORAD_CAT_ID": 32455, "ELEMENT_SET_NO": 999, "REV_AT_EPOCH": 64325, "BSTAR": 0.005316876, "MEAN_MOTION_DOT": 8.549e-05, "MEAN_MOTION_DDOT": 0}, "tle": {"line1": "1 32455U 99025DBT 25340.24759527  .00008549  00000+0  53169-2 0  9990", "line2": "2 32455 101.7323 170.6468 0236924 161.4160 199.5827 13.92383849643256"}}, "geometry": {"type": "Point", "coordinates": [-18.08353342944178, -42.932561132099906]}}, {"type": "Feature", "properties": {"norad_id": 32456, "name": "FENGYUN 1C DEB", "group": "fengyun-1c-debris", "lat": -45.734933528779244, "lon": 135.4485927996759, "alt_km": 1062.4159290993957, "timestamp": "2025-12-08T03:50:07.283563+00:00", "meta": {"OBJECT_NAME": "FENGYUN 1C DEB", "OBJECT_ID": "1999-025DBU", "EPOCH": "2025-12-07T02:54:26.616096", "MEAN_MOTION": 13.35599725, "ECCENTRICITY": 0.03793784, "INCLINATION": 103.667, "RA_OF_ASC_NODE": 119.6063, "ARG_OF_PERICENTER": 236.7833, "MEAN_ANOMALY": 119.637, "EPHEMERIS_TYPE": 0, "CLASSIFICATION_TYPE": "U", "NORAD_CAT_ID": 32456, "ELEMENT_SET_NO": 999, "REV_AT_EPOCH": 60541, "BSTAR": 0.003183534, "MEAN_MOTION_DOT": 2.369e-05, "MEAN_MOTION_DDOT": 0}, "tle": {"line1": "1 32456U 99025DBU 25341.12114139  .00002369  00000+0  31835-2 0  9993", "line2": "2 32456 103.6670 119.6063 0379378 236.7833 119.6370 13.35599725605412"}}, "geometry": {"type": "Point", "coordinates": [135.4485927996759, -45.734933528779244]}}, {"type": "Feature", "properties": {"norad_id": 32458, "name": "FENGYUN 1C DEB", "group": "fengyun-1c-debris", "lat": 54.10877022615246, "lon": -11.104811779077263, "alt_km": 655.4790581073612, "timestamp": "2025-12-08T03:50:07.283573+00:00", "meta": {"OBJECT_NAME": "FENGYUN 1C DEB", "OBJECT_ID": "1999-025DBW", "EPOCH": "2025-12-07T06:14:07.438848", "MEAN_MOTION": 14.62139933, "ECCENTRICITY": 0.00406184, "INCLINATION": 99.0456, "RA_OF_ASC_NODE": 0.6282, "ARG_OF_PERICENTER": 30.8716, "MEAN_ANOMALY": 329.4859, "EPHEMERIS_TYPE": 0, "CLASSIFICATION_TYPE": "U", "NORAD_CAT_ID": 32458, "ELEMENT_SET_NO": 999, "REV_AT_EPOCH": 67709, "BSTAR": 0.0025259964, "MEAN_MOTION_DOT": 0.00012819, "MEAN_MOTION_DDOT": 0}, "tle": {"line1": "1 32458U 99025DBW 25341.25980832  .00012819  00000+0  25260-2 0  9996", "line2": "2 32458  99.0456   0.6282 0040618  30.8716 329.4859 14.62139933677099"}}, "geometry": {"type": "Point", "coordinates": [-11.104811779077263, 54.10877022615246]}}, {"type": "Feature", "properties": {"norad_id": 32459, "name": "FENGYUN 1C DEB", "group": "fengyun-1c-debris", "lat": 78.10033787758569, "lon": -47.35073966716807, "alt_km": 812.5239718298999, "timestamp": "2025-12-08T03:50:07.283583+00:00", "meta": {"OBJECT_NAME": "FENGYUN 1C DEB", "OBJECT_ID": "1999-025DBX", "EPOCH": "2025-12-06T06:30:16.713792", "MEAN_MOTION": 14.42765434, "ECCENTRICITY": 0.02129405, "INCLINATION": 98.3013, "RA_OF_ASC_NODE": 354.6648, "ARG_OF_PERICENTER": 205.9407, "MEAN_ANOMALY": 153.0988, "EPHEMERIS_TYPE": 0, "CLASSIFICATION_TYPE": "U", "NORAD_CAT_ID": 32459, "ELEMENT_SET_NO": 999, "REV_AT_EPOCH": 94457, "BSTAR": 0.0010678076, "MEAN_MOTION_DOT": 4.63e-05, "MEAN_MOTION_DDOT": 0}, "tle": {"line1": "1 32459U 99025DBX 25340.27102678  .00004630  00000+0  10678-2 0  9991", "line2": "2 32459  98.3013 354.6648 0212940 205.9407 153.0988 14.42765434944573"}}, "geometry": {"type": "Point", "coordinates": [-47.35073966716807, 78.10033787758569]}}, {"type": "Feature", "properties": {"norad_id": 32460, "name": "FENGYUN 1C DEB", "group": "fengyun-1c-debris", "lat": -72.77302521764665, "lon": 155.00530232097853, "alt_km": 1051.9422371740739, "timestamp": "2025-12-08T03:50:07.283593+00:00", "meta": {"OBJECT_NAME": "FENGYUN 1C DEB", "OBJECT_ID": "1999-025DBY", "EPOCH": "2025-12-05T15:43:13.910304", "MEAN_MOTION": 13.89535553, "ECCENTRICITY": 0.01852118, "INCLINATION": 98.0202, "RA_OF_ASC_NODE": 125.7992, "ARG_OF_PERICENTER": 144.0505, "MEAN_ANOMALY": 217.3283, "EPHEMERIS_TYPE": 0, "CLASSIFICATION_TYPE": "U", "NORAD_CAT_ID": 32460, "ELEMENT_SET_NO": 999, "REV_AT_EPOCH": 65155, "BSTAR": 0.0019996023, "MEAN_MOTION_DOT": 2.773e-05, "MEAN_MOTION_DDOT": 0}, "tle": {"line1": "1 32460U 99025DBY 25339.65502211  .00002773  00000+0  19996-2 0  9998", "line2": "2 32460  98.0202 125.7992 0185211 144.0505 217.3283 13.89535553651555"}}, "geometry": {"type": "Point", "coordinates": [155.00530232097853, -72.77302521764665]}}, {"type": "Feature", "properties": {"norad_id": 32461, "name": "FENGYUN 1C DEB", "group": "fengyun-1c-debris", "lat": -57.801489957892564, "lon": -148.61653032292955, "alt_km": 1165.7162198942615, "timestamp": "2025-12-08T03:50:07.283603+00:00", "meta": {"OBJECT_NAME": "FENGYUN 1C DEB", "OBJECT_ID": "1999-025DBZ", "EPOCH": "2025-12-06T13:47:26.922624", "MEAN_MOTION": 13.72810321, "ECCENTRICITY": 0.02320135, "INCLINATION": 98.3348, "RA_OF_ASC_NODE": 196.5399, "ARG_OF_PERICENTER": 133.6429, "MEAN_ANOMALY": 257.3138, "EPHEMERIS_TYPE": 0, "CLASSIFICATION_TYPE": "U", "NORAD_CAT_ID": 32461, "ELEMENT_SET_NO": 999, "REV_AT_EPOCH": 67210, "BSTAR": 0.001699488, "MEAN_MOTION_DOT": 1.863e-05, "MEAN_MOTION_DDOT": 0}, "tle": {"line1": "1 32461U 99025DBZ 25340.57461716  .00001863  00000+0  16995-2 0  9991", "line2": "2 32461  98.3348 196.5399 0232013 133.6429 257.3138 13.72810321672107"}}, "geometry": {"type": "Point", "coordinates": [-148.61653032292955, -57.801489957892564]}}]}